ONEWEB-0136             
1 47282U 20100AA  25247.14970698 -.00000027  00000+0 -11011-3 0  9997
2 47282  87.8884  47.4794 0001243  98.2946 261.8323 13.12441429227143
ONEWEB-0137             
1 47283U 20100AB  25247.18377571 -.00000095  00000+0 -29867-3 0  9996
2 47283  87.8884  47.4788 0001831  98.4412 261.6924 13.12443827227059
ONEWEB-0138             
1 47284U 20100AC  25247.16268634 -.00000351  00000+0 -10118-2 0  9997
2 47284  87.8883  47.4926 0001601  94.9533 265.1779 13.12441975227131
ONEWEB-0139             
1 47285U 20100AD  25247.20177804  .00000330  00000+0  88299-3 0  9992
2 47285  87.8864  47.4758 0001650  98.2252 261.9064 13.12440276227216
ONEWEB-0140             
1 47286U 20100AE  25247.15620013 -.00000202  00000+0 -59806-3 0  9994
2 47286  87.8882  47.4695 0001591  94.0480 266.0830 13.12441738227174
ONEWEB-0141             
1 47287U 20100AF  25247.20147925  .00000476  00000+0  12884-2 0  9992
2 47287  87.8873  47.4763 0001952 100.7445 259.3903 13.12443721227167
ONEWEB-0142             
1 47288U 20100AG  25247.19039217  .00000195  00000+0  50763-3 0  9992
2 47288  87.8887  47.4935 0001847 105.9479 254.1854 13.12442451227157
ONEWEB-0143             
1 47289U 20100AH  25246.97128721  .00000477  00000+0  12897-2 0  9995
2 47289  87.8885  47.5342 0001702  92.8870 267.2454 13.12442649227103
